NORAD_CAT_ID,OBJECT_NAME,OBJECT_TYPE,EPOCH,MEAN_MOTION,ECCENTRICITY,INCLINATION,RA_OF_ASC_NODE,ARG_OF_PERICENTER,MEAN_ANOMALY,BSTAR,MEAN_MOTION_DOT,MEAN_MOTION_DDOT,TLE_LINE0,TLE_LINE1,TLE_LINE2,SEMIMAJOR_AXIS,PERIOD,APOGEE,PERIGEE,DECAYED
49766.0,STARLINK-3190,PAYLOAD,2022-01-01 06:00:00,15.40451742,0.00018,53.2152,179.2425,38.073,150.326,-0.00022922,-9.815e-05,0.0,0 STARLINK-3190,1 49766U 21115AU  22001.25001157 -.00009815  00000-0 -22922-3 0  9993,2 49766  53.2152 179.2425 0001800  38.0730 150.3260 15.40451742  5771,6822.9119999999975,93.479,446.005,443.549,0.0
49766.0,STARLINK-3190,PAYLOAD,2022-01-01 14:00:01,15.404654,0.0001824,53.2156,177.6723,41.2342,196.7981,-0.00035445,-0.00014953,0.0,0 STARLINK-3190,1 49766U 21115AU  22001.58335648 -.00014953  00000-0 -35445-3 0  9997,2 49766  53.2156 177.6723 0001824  41.2342 196.7981 15.40465400  3610,6822.871999999999,93.478,445.981,443.492,0.0
49766.0,STARLINK-3190,PAYLOAD,2022-01-01 22:00:00,15.40435983,0.0002065,53.2151,176.1031,35.715,251.8498,0.0012368,0.00050755,0.0,0 STARLINK-3190,1 49766U 21115AU  22001.91667824  .00050755  00000-0  12368-2 0  9994,2 49766  53.2151 176.1031 0002065  35.7150 251.8498 15.40435983  3635,6822.959,93.48,446.233,443.415,0.0
49766.0,STARLINK-3190,PAYLOAD,2022-01-02 06:00:00,15.40489997,0.0001865,53.2168,174.5326,34.1034,302.987,3.5414000000000003e-05,1.054e-05,0.0,0 STARLINK-3190,1 49766U 21115AU  22002.25001157  .00001054  00000-0  35414-4 0  9990,2 49766  53.2168 174.5326 0001865  34.1034 302.9870 15.40489997  5934,6822.799,93.477,445.937,443.392,0.0
49766.0,STARLINK-3190,PAYLOAD,2022-01-02 14:00:01,15.40484978,0.0001993,53.215,172.9608,35.3071,351.3586,-0.00057627,-0.00024047,0.0,0 STARLINK-3190,1 49766U 21115AU  22002.58334491 -.00024047  00000-0 -57627-3 0  9994,2 49766  53.2150 172.9608 0001993  35.3071 351.3586 15.40484978  5987,6822.814,93.477,446.039,443.319,0.0
49766.0,STARLINK-3190,PAYLOAD,2022-01-02 22:00:00,15.40447384,0.0002189,53.2146,171.3916,31.8259,44.4499,0.0012744,0.00052341,0.0,0 STARLINK-3190,1 49766U 21115AU  22002.91667824  .00052341  00000-0  12744-2 0  9996,2 49766  53.2146 171.3916 0002189  31.8259  44.4499 15.40447384  3648,6822.925,93.479,446.284,443.296,0.0
49766.0,STARLINK-3190,PAYLOAD,2022-01-03 06:00:00,15.40476377,0.0001938,53.2147,169.8193,33.9659,91.9154,-5.0722e-05,-2.49e-05,0.0,0 STARLINK-3190,1 49766U 21115AU  22003.25001157 -.00002490  00000-0 -50722-4 0  9997,2 49766  53.2147 169.8193 0001938  33.9659  91.9154 15.40476377  6086,6822.839,93.478,446.027,443.382,0.0
49766.0,STARLINK-3190,PAYLOAD,2022-01-03 14:00:01,15.40479807,0.0001965,53.2149,168.2492,34.2141,141.2757,-0.00045843,-0.0001922,0.0,0 STARLINK-3190,1 49766U 21115AU  22003.58334491 -.00019220  00000-0 -45843-3 0  9999,2 49766  53.2149 168.2492 0001965  34.2141 141.2757 15.40479807  3630,6822.829000000002,93.477,446.035,443.354,0.0
49766.0,STARLINK-3190,PAYLOAD,2022-01-03 22:00:00,15.40455745,0.0002148,53.2147,166.68,30.644,194.4524,0.00092902,0.00037985,0.0,0 STARLINK-3190,1 49766U 21115AU  22003.91667824  .00037985  00000-0  92902-3 0  9999,2 49766  53.2147 166.6800 0002148  30.6440 194.4524 15.40455745  3636,6822.9,93.479,446.231,443.3,0.0
49766.0,STARLINK-3190,PAYLOAD,2022-01-04 12:00:00,15.40467156,0.0001989,53.2153,163.9298,38.4387,183.4482,0.00013682,5.228e-05,0.0,0 STARLINK-3190,1 49766U 21115AU  22004.50001157  .00005228  00000-0  13682-3 0  9999,2 49766  53.2153 163.9298 0001989  38.4387 183.4482 15.40467156  6275,6822.8669999999975,93.478,446.089,443.375,0.0
49766.0,STARLINK-3190,PAYLOAD,2022-01-04 14:00:01,15.40478599,0.0002052,53.2154,163.5377,36.2809,288.0019,-0.00055251,-0.0002307,0.0,0 STARLINK-3190,1 49766U 21115AU  22004.58334491 -.00023070  00000-0 -55251-3 0  9992,2 49766  53.2154 163.5377 0002052  36.2809 288.0019 15.40478599  3613,6822.833000000001,93.477,446.098,443.298,0.0
49766.0,STARLINK-3190,PAYLOAD,2022-01-04 18:49:35,15.40470453,0.0002052,53.2164,162.5894,35.3817,324.7325,2.0322e-05,4.32e-06,0.0,0 STARLINK-3190,1 49766U 21115AU  22004.78443941  .00000432  00000-0  20322-4 0  9992,2 49766  53.2164 162.5894 0002052  35.3817 324.7325 15.40470453  5213,6822.857,93.478,446.122,443.322,0.0
49766.0,STARLINK-3190,PAYLOAD,2022-01-05 06:00:00,15.40431625,0.0001966,53.2159,160.3959,33.8506,29.6308,0.0011445,0.00046906,0.0,0 STARLINK-3190,1 49766U 21115AU  22005.25001157  .00046906  00000-0  11445-2 0  9994,2 49766  53.2159 160.3959 0001966  33.8506  29.6308 15.40431625  6396,6822.972,93.48,446.17800000000005,443.495,0.0
49766.0,STARLINK-3190,PAYLOAD,2022-01-05 14:00:01,15.40479998,0.0002104,53.2162,158.8264,34.3817,78.6698,-0.00054456,-0.00022746,0.0,0 STARLINK-3190,1 49766U 21115AU  22005.58334491 -.00022746  00000-0 -54456-3 0  9998,2 49766  53.2162 158.8264 0002104  34.3817  78.6698 15.40479998  3610,6822.829000000002,93.477,446.129,443.258,0.0
49766.0,STARLINK-3190,PAYLOAD,2022-01-05 22:00:00,15.40464491,0.0002253,53.2162,157.2568,29.7431,132.9118,-8.0382e-05,-3.708e-05,0.0,0 STARLINK-3190,1 49766U 21115AU  22005.91667824 -.00003708  00000-0 -80382-4 0  9999,2 49766  53.2162 157.2568 0002253  29.7431 132.9118 15.40464491  6497,6822.874,93.478,446.277,443.202,0.0
49766.0,STARLINK-3190,PAYLOAD,2022-01-06 14:00:01,15.40480598,0.0002182,53.2168,154.115,31.9696,229.8573,-0.00066772,-0.00027782,0.0,0 STARLINK-3190,1 49766U 21115AU  22006.58334491 -.00027782  00000-0 -66772-3 0  9998,2 49766  53.2168 154.1150 0002182  31.9696 229.8573 15.40480598  3613,6822.8269999999975,93.477,446.181,443.203,0.0
49766.0,STARLINK-3190,PAYLOAD,2022-01-06 22:00:00,15.40456922,0.0002313,53.2165,152.5452,26.8627,284.5667,-1.7833e-05,-1.137e-05,0.0,0 STARLINK-3190,1 49766U 21115AU  22006.91667824 -.00001137  00000-0 -17833-4 0  9995,2 49766  53.2165 152.5452 0002313  26.8627 284.5667 15.40456922  3616,6822.897,93.479,446.34,443.184,0.0
49766.0,STARLINK-3190,PAYLOAD,2022-01-07 06:00:00,15.40428733,0.0002118,53.2166,150.9729,29.786,331.2361,0.0013688,0.00056242,0.0,0 STARLINK-3190,1 49766U 21115AU  22007.25001157  .00056242  00000-0  13688-2 0  9991,2 49766  53.2166 150.9729 0002118  29.7860 331.2361 15.40428733  6703,6822.98,93.48,446.29,443.4,0.0
49766.0,STARLINK-3190,PAYLOAD,2022-01-07 14:00:01,15.40479027,0.0002292,53.2167,149.4037,30.0316,20.5627,-0.00059614,-0.00024855,0.0,0 STARLINK-3190,1 49766U 21115AU  22007.58334491 -.00024855  00000-0 -59614-3 0  9994,2 49766  53.2167 149.4037 0002292  30.0316  20.5627 15.40479027  3693,6822.831999999999,93.477,446.26,443.133,0.0
49766.0,STARLINK-3190,PAYLOAD,2022-01-07 22:00:00,15.404815,0.0002424,53.216,147.8337,26.5506,73.6423,-0.00058725,-0.00024494,0.0,0 STARLINK-3190,1 49766U 21115AU  22007.91667824 -.00024494  00000-0 -58725-3 0  9991,2 49766  53.2160 147.8337 0002424  26.5506  73.6423 15.40481500  3613,6822.824000000001,93.477,446.343,443.035,0.0
49766.0,STARLINK-3190,PAYLOAD,2022-01-08 02:00:01,15.40480291,0.0002275,53.2162,147.0474,28.083,276.9783,-0.0011507,-0.00047464,0.0,0 STARLINK-3190,1 49766U 21115AU  22008.08335648 -.00047464  00000-0 -11507-2 0  9994,2 49766  53.2162 147.0474 0002275  28.0830 276.9783 15.40480291  6830,6822.828,93.477,446.245,443.141,0.0
49766.0,STARLINK-3190,PAYLOAD,2022-01-08 14:00:01,15.40474853,0.0002325,53.2159,144.6924,28.1231,171.2616,-0.00029606,-0.00012565,0.0,0 STARLINK-3190,1 49766U 21115AU  22008.58334491 -.00012565  00000-0 -29606-3 0  9998,2 49766  53.2159 144.6924 0002325  28.1231 171.2616 15.40474853  6908,6822.844,93.478,446.295,443.12300000000016,0.0
49766.0,STARLINK-3190,PAYLOAD,2022-01-08 22:00:00,15.40489923,0.0002376,53.2153,143.1222,25.5131,223.4659,-0.0010278,-0.00042479,0.0,0 STARLINK-3190,1 49766U 21115AU  22008.91667824 -.00042479  00000-0 -10278-2 0  9995,2 49766  53.2153 143.1222 0002376  25.5131 223.4659 15.40489923  3631,6822.799,93.477,446.285,443.043,0.0
49766.0,STARLINK-3190,PAYLOAD,2022-01-09 14:00:01,15.40510561,0.0002319,53.2154,139.9808,25.567,322.6378,-0.00071823,-0.00029875,0.0,0 STARLINK-3190,1 49766U 21115AU  22009.58334491 -.00029875  00000-0 -71823-3 0  9999,2 49766  53.2154 139.9808 0002319  25.5670 322.6378 15.40510561  7064,6822.738,93.476,446.186,443.021,0.0
49766.0,STARLINK-3190,PAYLOAD,2022-01-09 22:00:00,15.40509676,0.0002417,53.2151,138.4103,23.0894,14.7569,-0.00089646,-0.00037152,0.0,0 STARLINK-3190,1 49766U 21115AU  22009.91667824 -.00037152  00000-0 -89646-3 0  9994,2 49766  53.2151 138.4103 0002417  23.0894  14.7569 15.40509676  3638,6822.741,93.476,446.255,442.957,0.0
49766.0,STARLINK-3190,PAYLOAD,2022-01-10 14:00:01,15.40471909,0.0002405,53.2154,135.2689,25.6724,111.4044,-0.0019379,-0.0007931,0.0,0 STARLINK-3190,1 49766U 21115AU  22010.58334491 -.00079310  00000-0 -19379-2 0  9997,2 49766  53.2154 135.2689 0002405  25.6724 111.4044 15.40471909  3632,6822.853,93.478,446.358,443.077,0.0
49766.0,STARLINK-3190,PAYLOAD,2022-01-10 22:00:00,15.40436934,0.0002448,53.2155,133.6985,23.3202,163.3189,-0.0011969,-0.00049273,0.0,0 STARLINK-3190,1 49766U 21115AU  22010.91667824 -.00049273  00000-0 -11969-2 0  9995,2 49766  53.2155 133.6985 0002448  23.3202 163.3189 15.40436934  7265,6822.956,93.48,446.491,443.151,0.0
49766.0,STARLINK-3190,PAYLOAD,2022-01-11 14:00:01,15.40431247,0.0002519,53.2159,130.5575,24.2306,261.487,0.00025042,9.898e-05,0.0,0 STARLINK-3190,1 49766U 21115AU  22011.58334491  .00009898  00000-0  25042-3 0  9995,2 49766  53.2159 130.5575 0002519  24.2306 261.4870 15.40431247  7375,6822.973000000001,93.48,446.556,443.119,0.0
49766.0,STARLINK-3190,PAYLOAD,2022-01-11 22:00:00,15.40461467,0.0002572,53.216,128.9868,22.2213,313.0477,3.2687e-05,9.4e-06,0.0,0 STARLINK-3190,1 49766U 21115AU  22011.91667824  .00000940  00000-0  32687-4 0  9994,2 49766  53.2160 128.9868 0002572  22.2213 313.0477 15.40461467  3625,6822.8830000000025,93.478,446.503,442.994,0.0
